        SPCS","OBJECT_NAME":"STARLINK-1673","OBJECT_ID":"2020-062C","CENTER_NAME":"EARTH","REF_FRAME":"TEME","TIME_SYSTEM":"UTC","MEAN_ELEMENT_THEORY":"SGP4","EPOCH":"2021-02-07T14:00:01.000224","MEAN_MOTION":15.06410303,"ECCENTRICITY":0.0001581,"INCLINATION":53.0584,"RA_OF_ASC_NODE":68.992,"ARG_OF_PERICENTER":54.3776,"MEAN_ANOMALY":117.8928,"EPHEMERIS_TYPE":0,"CLASSIFICATION_TYPE":"U","NORAD_CAT_ID":46327,"ELEMENT_SET_NO":999,"REV_AT_EPOCH":2472,"BSTAR":-0.0013741,"MEAN_MOTION_DOT":-0.00020695,"MEAN_MOTION_DDOT":0,"SEMIMAJOR_AXIS":6925.317,"PERIOD":95.591,"APOAPSIS":548.277,"PERIAPSIS":546.087,"OBJECT_TYPE":"PAYLOAD","RCS_SIZE":"LARGE","COUNTRY_CODE":"US","LAUNCH_DATE":"2020-09-03","SITE":"AFETR","DECAY_DATE":null,"DECAYED":0,"FILE":2952982,"GP_ID":171225015,"TLE_LINE0":"0
        STARLINK-1673","TLE_LINE1":"1 46327U 20062C   21038.58334491 -.00020695  00000-0
        -13741-2 0  9995","TLE_LINE2":"2 46327  53.0584  68.9920 0001581  54.3776
        117.8928 15.06410303 24724"},"version":"v1.0","launch":"5ef6a1e90059c33cee4a828a","longitude":115.2860332094852,"latitude":-0.31969664920394547,"height_km":548.7730593643246,"velocity_kms":7.588399290859323,"id":"5f5a9c1f2fd30c00065e5ef2"},{"spaceTrack":{"CCSDS_OMM_VERS":"2.0","COMMENT":"GENERATED
        VIA SPACE-TRACK.ORG API","CREATION_DATE":"2021-02-07T22:46:11","ORIGINATOR":"18
        SPCS","OBJECT_NAME":"STARLINK-1744","OBJECT_ID":"2020-070BH","CENTER_NAME":"EARTH","REF_FRAME":"TEME","TIME_SYSTEM":"UTC","MEAN_ELEMENT_THEORY":"SGP4","EPOCH":"2021-02-07T22:00:00.999936","MEAN_MOTION":15.56572381,"ECCENTRICITY":0.0007765,"INCLINATION":52.997,"RA_OF_ASC_NODE":188.2128,"ARG_OF_PERICENTER":26.6603,"MEAN_ANOMALY":210.8325,"EPHEMERIS_TYPE":0,"CLASSIFICATION_TYPE":"U","NORAD_CAT_ID":46587,"ELEMENT_SET_NO":999,"REV_AT_EPOCH":2035,"BSTAR":0.00068671,"MEAN_MOTION_DOT":0.00049551,"MEAN_MOTION_DDOT":0,"SEMIMAJOR_AXIS":6775.723,"PERIOD":92.511,"APOAPSIS":402.849,"PERIAPSIS":392.326,"OBJECT_TYPE":"PAYLOAD","RCS_SIZE":"LARGE","COUNTRY_CODE":"US","LAUNCH_DATE":"2020-10-06","SITE":"AFETR","DECAY_DATE":null,"DECAYED":0,"FILE":2953675,"GP_ID":171284818,"TLE_LINE0":"0
        STARLINK-1744","TLE_LINE1":"1 46587U 20070BH  21038.91667824  .00049551  00000-0  68671-3
        0  9991","TLE_LINE2":"2 46587  52.9970 188.2128 0007765  26.6603 210.8325
        15.56572381 20356"},"version":"v1.0","launch":"5ef6a2090059c33cee4a828b","longitude":-66.3695089517455,"latitude":-48.50917719741379,"height_km":418.0591311725775,"velocity_kms":7.657799225014927,"id":"5f889667c86e27000615b18d"},{"spaceTrack":{"CCSDS_OMM_VERS":"2.0","COMMENT":"GENERATED
        VIA SPACE-TRACK.ORG API","CREATION_DATE":"2021-02-07T21:33:15","ORIGINATOR":"18
        SPCS","OBJECT_NAME":"STARLINK-1682","OBJECT_ID":"2020-070AX","CENTER_NAME":"EARTH","REF_FRAME":"TEME","TIME_SYSTEM":"UTC","MEAN_ELEMENT_THEORY":"SGP4","EPOCH":"2021-02-07T14:00:01.000224","MEAN_MOTION":15.06409415,"ECCENTRICITY":0.0002423,"INCLINATION":53.0566,"RA_OF_ASC_NODE":213.977,"ARG_OF_PERICENTER":93.4771,"MEAN_ANOMALY":341.232,"EPHEMERIS_TYPE":0,"CLASSIFICATION_TYPE":"U","NORAD_CAT_ID":46577,"ELEMENT_SET_NO":999,"REV_AT_EPOCH":175,"BSTAR":-0.0016958,"MEAN_MOTION_DOT":-0.00025459,"MEAN_MOTION_DDOT":0,"SEMIMAJOR_AXIS":6925.32,"PERIOD":95.592,"APOAPSIS":548.863,"PERIAPSIS":545.507,"OBJECT_TYPE":"PAYLOAD","RCS_SIZE":"LARGE","COUNTRY_CODE":"US","LAUNCH_DATE":"2020-10-06","SITE":"AFETR","DECAY_DATE":null,"DECAYED":0,"FILE":2953300,"GP_ID":171253644,"TLE_LINE0":"0
        STARLINK-1682","TLE_LINE1":"1 46577U 20070AX  21038.58334491 -.00025459  00000-0
        -16958-2 0  9997","TLE_LINE2":"2 46577  53.0566 213.9770 0002423  93.4771
        341.2320 15.06409415  1750"},"version":"v1.0","launch":"5ef6a2090059c33cee4a828b","longitude":159.27750648991196,"latitude":52.724523063425394,"height_km":552.0536889048035,"velocity_kms":7.593018593854765,"id":"5f889667c86e27000615b1a9"},{"spaceTrack":{"CCSDS_OMM_VERS":"2.0","COMMENT":"GENERATED
        VIA SPACE-TRACK.ORG API","CREATION_DATE":"2021-02-07T22:46:11","ORIGINATOR":"18
        SPCS","OBJECT_NAME":"STARLINK-1699","OBJECT_ID":"2020-070S","CENTER_NAME":"EARTH","REF_FRAME":"TEME","TIME_SYSTEM":"UTC","MEAN_ELEMENT_THEORY":"SGP4","EPOCH":"2021-02-07T22:00:00.999936","MEAN_MOTION":15.06451393,"ECCENTRICITY":0.0001438,"INCLINATION":53.0265,"RA_OF_ASC_NODE":227.4816,"ARG_OF_PERICENTER":88.8704,"MEAN_ANOMALY":312.0672,"EPHEMERIS_TYPE":0,"CLASSIFICATION_TYPE":"U","NORAD_CAT_ID":46548,"ELEMENT_SET_NO":999,"REV_AT_EPOCH":1981,"BSTAR":-0.011793,"MEAN_MOTION_DOT":-0.00171991,"MEAN_MOTION_DDOT":0,"SEMIMAJOR_AXIS":6925.191,"PERIOD":95.589,"APOAPSIS":548.052,"PERIAPSIS":546.06,"OBJECT_TYPE":"PAYLOAD","RCS_SIZE":"LARGE","COUNTRY_CODE":"US","LAUNCH_DATE":"2020-10-06","SITE":"AFETR","DECAY_DATE":null,"DECAYED":0,"FILE":2953662,"GP_ID":171284679,"TLE_LINE0":"0
        STARLINK-1699","TLE_LINE1":"1 46548U 20070S   21038.91667824 -.00171991  00000-0
        -11793-1 0  9995","TLE_LINE2":"2 46548  53.0265 227.4816 0001438  88.8704
        312.0672 15.06451393 19818"},"version":"v1.0","launch":"5ef6a2090059c33cee4a828b","longitude":122.60682047536464,"latitude":31.774312805510277,"height_km":548.4467192184529,"velocity_kms":7.592289295987853,"id":"5f889668c86e27000615b1ea"},{"spaceTrack":{"CCSDS_OMM_VERS":"2.0","COMMENT":"GENERATED
        VIA SPACE-TRACK.ORG API","CREATION_DATE":"2021-02-07T21:33:15","ORIGINATOR":"18
        SPCS","OBJECT_NAME":"STARLINK-1709","OBJECT_ID":"2020-070AF","CENTER_NAME":"EARTH","REF_FRAME":"TEME","TIME_SYSTEM":"UTC","MEAN_ELEMENT_THEORY":"SGP4","EPOCH":"2021-02-07T14:00:01.000224","MEAN_MOTION":15.06413797,"ECCENTRICITY":0.0002217,"INCLINATION":53.0573,"RA_OF_ASC_NODE":213.9769,"ARG_OF_PERICENTER":102.0689,"MEAN_ANOMALY":312.6444,"EPHEMERIS_TYPE":0,"CLASSIFICATION_TYPE":"U","NORAD_CAT_ID":46561,"ELEMENT_SET_NO":999,"REV_AT_EPOCH":176,"BSTAR":-0.0017259,"MEAN_MOTION_DOT":-0.00025907,"MEAN_MOTION_DDOT":0,"SEMIMAJOR_AXIS":6925.306,"PERIOD":95.591,"APOAPSIS":548.707,"PERIAPSIS":545.636,"OBJECT_TYPE":"PAYLOAD","RCS_SIZE":"LARGE","COUNTRY_CODE":"US","LAUNCH_DATE":"2020-10-06","SITE":"AFETR","DECAY_DATE":null,"DECAYED":0,"FILE":2953300,"GP_ID":171253642,"TLE_LINE0":"0
        STARLINK-1709","TLE_LINE1":"1 46561U 20070AF  21038.58334491 -.00025907  00000-0
        -17259-2 0  9993","TLE_LINE2":"2 46561  53.0573 213.9769 0002217 102.0689
        312.6444 15.06413797  1763"},"version":"v1.0","launch":"5ef6a2090059c33cee4a828b","longitude":130.16154936988644,"latitude":45.7618477967754,"height_km":550.9176580889944,"velocity_kms":7.592700272804126,"id":"5f889668c86e27000615b1ec"},{"spaceTrack":{"CCSDS_OMM_VERS":"2.0","COMMENT":"GENERATED
        VIA SPACE-TRACK.ORG API","CREATION_DATE":"2021-02-07T22:46:11","ORIGINATOR":"18
        SPCS","OBJECT_NAME":"STARLINK-1693","OBJECT_ID":"2020-070M","CENTER_NAME":"EARTH","REF_FRAME":"TEME","TIME_SYSTEM":"UTC","MEAN_ELEMENT_THEORY":"SGP4","EPOCH":"2021-02-07T22:00:00.999936","MEAN_MOTION":15.06484458,"ECCENTRICITY":0.0001556,"INCLINATION":53.0196,"RA_OF_ASC_NODE":227.4813,"ARG_OF_PERICENTER":71.9181,"MEAN_ANOMALY":309.0385,"EPHEMERIS_TYPE":0,"CLASSIFICATION_TYPE":"U","NORAD_CAT_ID":46543,"ELEMENT_SET_NO":999,"REV_AT_EPOCH":1981,"BSTAR":-0.017037,"MEAN_MOTION_DOT":-0.00246015,"MEAN_MOTION_DDOT":0,"SEMIMAJOR_AXIS":6925.09,"PERIOD":95.587,"APOAPSIS":548.032,"PERIAPSIS":545.877,"OBJECT_TYPE":"PAYLOAD","RCS_SIZE":"LARGE","COUNTRY_CODE":"US","LAUNCH_DATE":"2020-10-06","SITE":"AFETR","DECAY_DATE":null,"DECAYED":0,"FILE":2953660,"GP_ID":171284646,"TLE_LINE0":"0
        STARLINK-1693","TLE_LINE1":"1 46543U 20070M   21038.91667824 -.00246015  00000-0
        -17037-1 0  9997","TLE_LINE2":"2 46543  53.0196 227.4813 0001556  71.9181
        309.0385 15.06484458 19811"},"version":"v1.0","launch":"5ef6a2090059c33cee4a828b","longitude":107.9939069409168,"latitude":16.738236233357114,"height_km":546.6169050893923,"velocity_kms":7.591740069745642,"id":"5f889668c86e27000615b1e9"},{"spaceTrack":{"CCSDS_OMM_VERS":"2.0","COMMENT":"GENERATED
        VIA SPACE-TRACK.ORG API","CREATION_DATE":"2021-02-07T22:46:11","ORIGINATOR":"18
        SPCS","OBJECT_NAME":"STARLINK-1701","OBJECT_ID":"2020-070U","CENTER_NAME":"EARTH","REF_FRAME":"TEME","TIME_SYSTEM":"UTC","MEAN_ELEMENT_THEORY":"SGP4","EPOCH":"2021-02-07T22:00:00.999936","MEAN_MOTION":15.06368192,"ECCENTRICITY":0.000139,"INCLINATION":53.0101,"RA_OF_ASC_NODE":227.4955,"ARG_OF_PERICENTER":93.5832,"MEAN_ANOMALY":227.293,"EPHEMERIS_TYPE":0,"CLASSIFICATION_TYPE":"U","NORAD_CAT_ID":46550,"ELEMENT_SET_NO":999,"REV_AT_EPOCH":1981,"BSTAR":0.0038399,"MEAN_MOTION_DOT":0.00057332,"MEAN_MOTION_DDOT":0,"SEMIMAJOR_AXIS":6925.446,"PERIOD":95.594,"APOAPSIS":548.274,"PERIAPSIS":546.348,"OBJECT_TYPE":"PAYLOAD","RCS_SIZE":"LARGE","COUNTRY_CODE":"US","LAUNCH_DATE":"2020-10-06","SITE":"AFETR","DECAY_DATE":null,"DECAYED":0,"FILE":2953662,"GP_ID":171285186,"TLE_LINE0":"0
        STARLINK-1701","TLE_LINE1":"1 46550U 20070U   21038.91667824  .00057332  00000-0  38399-2
        0  9990","TLE_LINE2":"2 46550  53.0101 227.4955 0001390  93.5832 227.2930
        15.06368192 19814"},"version":"v1.0","launch":"5ef6a2090059c33cee4a828b","longitude":68.7285081008037,"latitude":-30.586144875453655,"height_km":557.2846623508594,"velocity_kms":7.582453777418186,"id":"5f889668c86e27000615b1f3"},{"spaceTrack":{"CCSDS_OMM_VERS":"2.0","COMMENT":"GENERATED
        VIA SPACE-TRACK.ORG API","CREATION_DATE":"2021-02-07T21:33:15","ORIGINATOR":"18
